ONEWEB-0379             
1 49305U 21090AC  24314.22492231  .00000048  00000+0  95548-4 0  9998
2 49305  87.9029  46.0252 0001794 102.2704 257.8627 13.14501692152012
ONEWEB-0380             
1 49306U 21090AD  24314.25858698 -.00000589  00000+0 -15030-2 0  9993
2 49306  87.9183  61.2894 0001758 103.2789 256.8540 13.19722459150550
ONEWEB-0381             
1 49307U 21090AE  24314.46741252 -.00000669  00000+0 -16774-2 0  9999
2 49307  87.9295  30.7605 0001724 105.7177 254.4147 13.20766267153947
ONEWEB-0382             
1 49308U 21090AF  24314.22750908  .00000180  00000+0  41126-3 0  9998
2 49308  87.9289  30.8039 0002044 111.9933 248.1418 13.20774665153917
ONEWEB-0383             
1 49309U 21090AG  24314.21856676 -.00000036  00000+0 -13152-3 0  9997
2 49309  87.9027  46.0116 0001958 105.5856 254.5490 13.14503664152034
ONEWEB-0384             
1 49310U 21090AH  24314.22435599  .00000132  00000+0  29325-3 0  9991
2 49310  87.9293  30.8182 0002157 113.2650 246.8710 13.20771157153924
ONEWEB-0385             
1 49311U 21090AJ  24314.44686630  .00003317  00000+0  81220-2 0  9999
2 49311  87.9275  30.7765 0002503 106.1112 254.0297 13.20775100153934
ONEWEB-0386             
1 49312U 21090AK  24314.16121580  .00000026  00000+0  31061-4 0  9991
2 49312  87.9284  30.8170 0001968 109.2874 250.8473 13.20779648153907
